{"epoch":1784710044,"count":18256,"objects":[{"id":"53807","name":"BLUEWALKER 3","type":"PAYLOAD","l1":"1 53807U 22111AL  26202.35020169  .00004373  00000-0  12299-3 0  9991","l2":"2 53807  53.2275 233.5359 0004719 292.9039  67.1468 15.38652942215469"}]}